<?xml version="1.0" encoding="UTF-8"?>
<kml xmlns="http://www.opengis.net/kml/2.2" xmlns:gx="http://www.google.com/kml/ext/2.2">
    <Document id="1">
        <Style id="icon-1739-E65100-normal">
            <IconStyle id="17">
                <colorMode>normal</colorMode>
                <scale>1</scale>
                <heading>0</heading>
                <Icon id="18">
                    <href>https://www.gstatic.com/mapspro/images/stock/503-wht-blank_maps.png</href>
                </Icon>
            </IconStyle>
        </Style>
        <Style id="196"/>
        <Style id="icon-1739-7CB342-normal">
            <IconStyle id="21">
                <colorMode>normal</colorMode>
                <scale>1</scale>
                <heading>0</heading>
                <Icon id="22">
                    <href>https://www.gstatic.com/mapspro/images/stock/503-wht-blank_maps.png</href>
                </Icon>
            </IconStyle>
        </Style>
        <Style id="197"/>
        <Style id="icon-1739-9C27B0-normal">
            <IconStyle id="25">
                <colorMode>normal</colorMode>
                <scale>1</scale>
                <heading>0</heading>
                <Icon id="26">
                    <href>https://www.gstatic.com/mapspro/images/stock/503-wht-blank_maps.png</href>
                </Icon>
            </IconStyle>
        </Style>
        <Style id="198"/>
        <Style id="icon-1739-FFEA00-normal">
            <IconStyle id="29">
                <colorMode>normal</colorMode>
                <scale>1</scale>
                <heading>0</heading>
                <Icon id="30">
                    <href>https://www.gstatic.com/mapspro/images/stock/503-wht-blank_maps.png</href>
                </Icon>
            </IconStyle>
        </Style>
        <Style id="199"/>
        <Style id="icon-1739-0288D1-normal">
            <IconStyle id="33">
                <colorMode>normal</colorMode>
                <scale>1</scale>
                <heading>0</heading>
                <Icon id="34">
                    <href>https://www.gstatic.com/mapspro/images/stock/503-wht-blank_maps.png</href>
                </Icon>
            </IconStyle>
        </Style>
        <Style id="200"/>
        <Style id="icon-1556-FFD600-normal">
            <IconStyle id="41">
                <colorMode>normal</colorMode>
                <scale>1</scale>
                <heading>0</heading>
                <Icon id="42">
                    <href>https://www.gstatic.com/mapspro/images/stock/503-wht-blank_maps.png</href>
                </Icon>
            </IconStyle>
        </Style>
        <Style id="201"/>
        <Style id="icon-1594-000000-normal">
            <IconStyle id="37">
                <colorMode>normal</colorMode>
                <scale>1</scale>
                <heading>0</heading>
                <Icon id="38">
                    <href>https://www.gstatic.com/mapspro/images/stock/503-wht-blank_maps.png</href>
                </Icon>
            </IconStyle>
        </Style>
        <Style id="202"/>
        <Style id="icon-1636-0288D1-normal">
            <IconStyle id="45">
                <colorMode>normal</colorMode>
                <scale>1</scale>
                <heading>0</heading>
                <Icon id="46">
                    <href>https://www.gstatic.com/mapspro/images/stock/503-wht-blank_maps.png</href>
                </Icon>
            </IconStyle>
        </Style>
        <Style id="203"/>
        <Style id="icon-1577-0288D1-normal">
            <IconStyle id="73">
                <colorMode>normal</colorMode>
                <scale>1</scale>
                <heading>0</heading>
                <Icon id="74">
                    <href>https://www.gstatic.com/mapspro/images/stock/503-wht-blank_maps.png</href>
                </Icon>
            </IconStyle>
        </Style>
        <Style id="204"/>
        <Style id="icon-1577-0F9D58-normal">
            <IconStyle id="77">
                <colorMode>normal</colorMode>
                <scale>1</scale>
                <heading>0</heading>
                <Icon id="78">
                    <href>https://www.gstatic.com/mapspro/images/stock/503-wht-blank_maps.png</href>
                </Icon>
            </IconStyle>
        </Style>
        <Style id="205"/>
        <Style id="icon-1577-FFEA00-normal">
            <IconStyle id="81">
                <colorMode>normal</colorMode>
                <scale>1</scale>
                <heading>0</heading>
                <Icon id="82">
                    <href>https://www.gstatic.com/mapspro/images/stock/503-wht-blank_maps.png</href>
                </Icon>
            </IconStyle>
        </Style>
        <Style id="206"/>
        <Style id="icon-1577-FF5252-normal">
            <IconStyle id="85">
                <colorMode>normal</colorMode>
                <scale>1</scale>
                <heading>0</heading>
                <Icon id="86">
                    <href>https://www.gstatic.com/mapspro/images/stock/503-wht-blank_maps.png</href>
                </Icon>
            </IconStyle>
        </Style>
        <Style id="207"/>
        <Style id="icon-1798-0288D1-normal">
            <IconStyle id="53">
                <colorMode>normal</colorMode>
                <scale>1</scale>
                <heading>0</heading>
                <Icon id="54">
                    <href>https://www.gstatic.com/mapspro/images/stock/503-wht-blank_maps.png</href>
                </Icon>
            </IconStyle>
        </Style>
        <Style id="208"/>
        <Style id="icon-1798-0F9D58-normal">
            <IconStyle id="57">
                <colorMode>normal</colorMode>
                <scale>1</scale>
                <heading>0</heading>
                <Icon id="58">
                    <href>https://www.gstatic.com/mapspro/images/stock/503-wht-blank_maps.png</href>
                </Icon>
            </IconStyle>
        </Style>
        <Style id="209"/>
        <Style id="icon-1798-FFEA00-normal">
            <IconStyle id="61">
                <colorMode>normal</colorMode>
                <scale>1</scale>
                <heading>0</heading>
                <Icon id="62">
                    <href>https://www.gstatic.com/mapspro/images/stock/503-wht-blank_maps.png</href>
                </Icon>
            </IconStyle>
        </Style>
        <Style id="210"/>
        <Style id="icon-1798-FF5252-normal">
            <IconStyle id="65">
                <colorMode>normal</colorMode>
                <scale>1</scale>
                <heading>0</heading>
                <Icon id="66">
                    <href>https://www.gstatic.com/mapspro/images/stock/503-wht-blank_maps.png</href>
                </Icon>
            </IconStyle>
        </Style>
        <Style id="211"/>
        <Style id="icon-1534-0288D1-normal">
            <IconStyle id="69">
                <colorMode>normal</colorMode>
                <scale>1</scale>
                <heading>0</heading>
                <Icon id="70">
                    <href>https://www.gstatic.com/mapspro/images/stock/503-wht-blank_maps.png</href>
                </Icon>
            </IconStyle>
        </Style>
        <Style id="212"/>
        <Style id="213"/>
        <Style id="icon-1602-0288D1-normal">
            <IconStyle id="89">
                <colorMode>normal</colorMode>
                <scale>1</scale>
                <heading>0</heading>
                <Icon id="90">
                    <href>https://www.gstatic.com/mapspro/images/stock/503-wht-blank_maps.png</href>
                </Icon>
            </IconStyle>
        </Style>
        <Style id="214"/>
        <Style id="icon-1602-0F9D58-normal">
            <IconStyle id="93">
                <colorMode>normal</colorMode>
                <scale>1</scale>
                <heading>0</heading>
                <Icon id="94">
                    <href>https://www.gstatic.com/mapspro/images/stock/503-wht-blank_maps.png</href>
                </Icon>
            </IconStyle>
        </Style>
        <Style id="215"/>
        <Style id="icon-1602-FFEA00-normal">
            <IconStyle id="97">
                <colorMode>normal</colorMode>
                <scale>1</scale>
                <heading>0</heading>
                <Icon id="98">
                    <href>https://www.gstatic.com/mapspro/images/stock/503-wht-blank_maps.png</href>
                </Icon>
            </IconStyle>
        </Style>
        <Style id="216"/>
        <Style id="icon-1602-FF5252-normal">
            <IconStyle id="101">
                <colorMode>normal</colorMode>
                <scale>1</scale>
                <heading>0</heading>
                <Icon id="102">
                    <href>https://www.gstatic.com/mapspro/images/stock/503-wht-blank_maps.png</href>
                </Icon>
            </IconStyle>
        </Style>
        <Style id="217"/>
        <Style id="icon-1502-0288D1-normal">
            <IconStyle id="105">
                <colorMode>normal</colorMode>
                <scale>1</scale>
                <heading>0</heading>
                <Icon id="106">
                    <href>https://www.gstatic.com/mapspro/images/stock/503-wht-blank_maps.png</href>
                </Icon>
            </IconStyle>
        </Style>
        <Style id="218"/>
        <Style id="icon-1670-0288D1-normal">
            <IconStyle id="125">
                <colorMode>normal</colorMode>
                <scale>1</scale>
                <heading>0</heading>
                <Icon id="126">
                    <href>https://www.gstatic.com/mapspro/images/stock/503-wht-blank_maps.png</href>
                </Icon>
            </IconStyle>
        </Style>
        <Style id="219"/>
        <Style id="icon-1591-0288D1-normal">
            <IconStyle id="113">
                <colorMode>normal</colorMode>
                <scale>1</scale>
                <heading>0</heading>
                <Icon id="114">
                    <href>https://www.gstatic.com/mapspro/images/stock/503-wht-blank_maps.png</href>
                </Icon>
            </IconStyle>
        </Style>
        <Style id="220"/>
        <Style id="icon-1720-0288D1-normal">
            <IconStyle id="109">
                <colorMode>normal</colorMode>
                <scale>1</scale>
                <heading>0</heading>
                <Icon id="110">
                    <href>https://www.gstatic.com/mapspro/images/stock/503-wht-blank_maps.png</href>
                </Icon>
            </IconStyle>
        </Style>
        <Style id="221"/>
        <Style id="icon-1706-0288D1-normal">
            <IconStyle id="121">
                <colorMode>normal</colorMode>
                <scale>1</scale>
                <heading>0</heading>
                <Icon id="122">
                    <href>https://www.gstatic.com/mapspro/images/stock/503-wht-blank_maps.png</href>
                </Icon>
            </IconStyle>
        </Style>
        <Style id="222"/>
        <Style id="223"/>
        <Style id="icon-1569-0288D1-normal">
            <IconStyle id="141">
                <colorMode>normal</colorMode>
                <scale>1</scale>
                <heading>0</heading>
                <Icon id="142">
                    <href>https://www.gstatic.com/mapspro/images/stock/503-wht-blank_maps.png</href>
                </Icon>
            </IconStyle>
        </Style>
        <Style id="224"/>
        <Style id="icon-1532-0288D1-normal">
            <IconStyle id="137">
                <colorMode>normal</colorMode>
                <scale>1</scale>
                <heading>0</heading>
                <Icon id="138">
                    <href>https://www.gstatic.com/mapspro/images/stock/503-wht-blank_maps.png</href>
                </Icon>
            </IconStyle>
        </Style>
        <Style id="225"/>
        <Style id="icon-1504-0288D1-normal">
            <IconStyle id="133">
                <colorMode>normal</colorMode>
                <scale>1</scale>
                <heading>0</heading>
                <Icon id="134">
                    <href>https://www.gstatic.com/mapspro/images/stock/503-wht-blank_maps.png</href>
                </Icon>
            </IconStyle>
        </Style>
        <Style id="226"/>
        <Style id="icon-1716-0288D1-normal">
            <IconStyle id="129">
                <colorMode>normal</colorMode>
                <scale>1</scale>
                <heading>0</heading>
                <Icon id="130">
                    <href>https://www.gstatic.com/mapspro/images/stock/503-wht-blank_maps.png</href>
                </Icon>
            </IconStyle>
        </Style>
        <Style id="227"/>
        <Style id="icon-1731-0288D1-normal">
            <IconStyle id="145">
                <colorMode>normal</colorMode>
                <scale>1</scale>
                <heading>0</heading>
                <Icon id="146">
                    <href>https://www.gstatic.com/mapspro/images/stock/503-wht-blank_maps.png</href>
                </Icon>
            </IconStyle>
        </Style>
        <Style id="228"/>
        <Style id="icon-1511-0288D1-normal">
            <IconStyle id="149">
                <colorMode>normal</colorMode>
                <scale>1</scale>
                <heading>0</heading>
                <Icon id="150">
                    <href>https://www.gstatic.com/mapspro/images/stock/503-wht-blank_maps.png</href>
                </Icon>
            </IconStyle>
        </Style>
        <Style id="229"/>
        <Style id="icon-1637-0288D1-normal">
            <IconStyle id="157">
                <colorMode>normal</colorMode>
                <scale>1</scale>
                <heading>0</heading>
                <Icon id="158">
                    <href>https://www.gstatic.com/mapspro/images/stock/503-wht-blank_maps.png</href>
                </Icon>
            </IconStyle>
        </Style>
        <Style id="230"/>
        <Style id="icon-1635-0288D1-normal">
            <IconStyle id="153">
                <colorMode>normal</colorMode>
                <scale>1</scale>
                <heading>0</heading>
                <Icon id="154">
                    <href>https://www.gstatic.com/mapspro/images/stock/503-wht-blank_maps.png</href>
                </Icon>
            </IconStyle>
        </Style>
        <Style id="231"/>
        <Style id="icon-1685-0288D1-normal">
            <IconStyle id="161">
                <colorMode>normal</colorMode>
                <scale>1</scale>
                <heading>0</heading>
                <Icon id="162">
                    <href>https://www.gstatic.com/mapspro/images/stock/503-wht-blank_maps.png</href>
                </Icon>
            </IconStyle>
        </Style>
        <Style id="232"/>
        <Style id="icon-1654-0288D1-normal">
            <IconStyle id="165">
                <colorMode>normal</colorMode>
                <scale>1</scale>
                <heading>0</heading>
                <Icon id="166">
                    <href>https://www.gstatic.com/mapspro/images/stock/503-wht-blank_maps.png</href>
                </Icon>
            </IconStyle>
        </Style>
        <Style id="233"/>
        <Style id="icon-1522-0288D1-normal">
            <IconStyle id="169">
                <colorMode>normal</colorMode>
                <scale>1</scale>
                <heading>0</heading>
                <Icon id="170">
                    <href>https://www.gstatic.com/mapspro/images/stock/503-wht-blank_maps.png</href>
                </Icon>
            </IconStyle>
        </Style>
        <Style id="234"/>
        <Style id="icon-1726-0288D1-normal">
            <IconStyle id="173">
                <colorMode>normal</colorMode>
                <scale>1</scale>
                <heading>0</heading>
                <Icon id="174">
                    <href>https://www.gstatic.com/mapspro/images/stock/503-wht-blank_maps.png</href>
                </Icon>
            </IconStyle>
        </Style>
        <Style id="235"/>
        <Style id="icon-1608-0288D1-normal">
            <IconStyle id="177">
                <colorMode>normal</colorMode>
                <scale>1</scale>
                <heading>0</heading>
                <Icon id="178">
                    <href>https://www.gstatic.com/mapspro/images/stock/503-wht-blank_maps.png</href>
                </Icon>
            </IconStyle>
        </Style>
        <Style id="236"/>
        <StyleMap id="icon-1739-E65100">
            <Pair>
                <key>normal</key>
                <styleUrl>#icon-1739-E65100-normal</styleUrl>
            </Pair>
            <Pair>
                <key>highlight</key>
                <styleUrl>#196</styleUrl>
            </Pair>
        </StyleMap>
        <StyleMap id="icon-1739-7CB342">
            <Pair>
                <key>normal</key>
                <styleUrl>#icon-1739-7CB342-normal</styleUrl>
            </Pair>
            <Pair>
                <key>highlight</key>
                <styleUrl>#197</styleUrl>
            </Pair>
        </StyleMap>
        <StyleMap id="27">
            <Pair>
                <key>normal</key>
                <styleUrl>#icon-1739-9C27B0-normal</styleUrl>
            </Pair>
            <Pair>
                <key>highlight</key>
                <styleUrl>#198</styleUrl>
            </Pair>
        </StyleMap>
        <StyleMap id="31">
            <Pair>
                <key>normal</key>
                <styleUrl>#icon-1739-FFEA00-normal</styleUrl>
            </Pair>
            <Pair>
                <key>highlight</key>
                <styleUrl>#199</styleUrl>
            </Pair>
        </StyleMap>
        <StyleMap id="35">
            <Pair>
                <key>normal</key>
                <styleUrl>#icon-1739-0288D1-normal</styleUrl>
            </Pair>
            <Pair>
                <key>highlight</key>
                <styleUrl>#200</styleUrl>
            </Pair>
        </StyleMap>
        <StyleMap id="43">
            <Pair>
                <key>normal</key>
                <styleUrl>#icon-1556-FFD600-normal</styleUrl>
            </Pair>
            <Pair>
                <key>highlight</key>
                <styleUrl>#201</styleUrl>
            </Pair>
        </StyleMap>
        <StyleMap id="39">
            <Pair>
                <key>normal</key>
                <styleUrl>#icon-1594-000000-normal</styleUrl>
            </Pair>
            <Pair>
                <key>highlight</key>
                <styleUrl>#202</styleUrl>
            </Pair>
        </StyleMap>
        <StyleMap id="47">
            <Pair>
                <key>normal</key>
                <styleUrl>#icon-1636-0288D1-normal</styleUrl>
            </Pair>
            <Pair>
                <key>highlight</key>
                <styleUrl>#203</styleUrl>
            </Pair>
        </StyleMap>
        <StyleMap id="75">
            <Pair>
                <key>normal</key>
                <styleUrl>#icon-1577-0288D1-normal</styleUrl>
            </Pair>
            <Pair>
                <key>highlight</key>
                <styleUrl>#204</styleUrl>
            </Pair>
        </StyleMap>
        <StyleMap id="79">
            <Pair>
                <key>normal</key>
                <styleUrl>#icon-1577-0F9D58-normal</styleUrl>
            </Pair>
            <Pair>
                <key>highlight</key>
                <styleUrl>#205</styleUrl>
            </Pair>
        </StyleMap>
        <StyleMap id="83">
            <Pair>
                <key>normal</key>
                <styleUrl>#icon-1577-FFEA00-normal</styleUrl>
            </Pair>
            <Pair>
                <key>highlight</key>
                <styleUrl>#206</styleUrl>
            </Pair>
        </StyleMap>
        <StyleMap id="87">
            <Pair>
                <key>normal</key>
                <styleUrl>#icon-1577-FF5252-normal</styleUrl>
            </Pair>
            <Pair>
                <key>highlight</key>
                <styleUrl>#207</styleUrl>
            </Pair>
        </StyleMap>
        <StyleMap id="55">
            <Pair>
                <key>normal</key>
                <styleUrl>#icon-1798-0288D1-normal</styleUrl>
            </Pair>
            <Pair>
                <key>highlight</key>
                <styleUrl>#208</styleUrl>
            </Pair>
        </StyleMap>
        <StyleMap id="59">
            <Pair>
                <key>normal</key>
                <styleUrl>#icon-1798-0F9D58-normal</styleUrl>
            </Pair>
            <Pair>
                <key>highlight</key>
                <styleUrl>#209</styleUrl>
            </Pair>
        </StyleMap>
        <StyleMap id="63">
            <Pair>
                <key>normal</key>
                <styleUrl>#icon-1798-FFEA00-normal</styleUrl>
            </Pair>
            <Pair>
                <key>highlight</key>
                <styleUrl>#210</styleUrl>
            </Pair>
        </StyleMap>
        <StyleMap id="67">
            <Pair>
                <key>normal</key>
                <styleUrl>#icon-1798-FF5252-normal</styleUrl>
            </Pair>
            <Pair>
                <key>highlight</key>
                <styleUrl>#211</styleUrl>
            </Pair>
        </StyleMap>
        <StyleMap id="71">
            <Pair>
                <key>normal</key>
                <styleUrl>#icon-1534-0288D1-normal</styleUrl>
            </Pair>
            <Pair>
                <key>highlight</key>
                <styleUrl>#212</styleUrl>
            </Pair>
        </StyleMap>
        <StyleMap id="51">
            <Pair>
                <key>normal</key>
                <styleUrl>#icon-1798-0288D1-normal</styleUrl>
            </Pair>
            <Pair>
                <key>highlight</key>
                <styleUrl>#213</styleUrl>
            </Pair>
        </StyleMap>
        <StyleMap id="91">
            <Pair>
                <key>normal</key>
                <styleUrl>#icon-1602-0288D1-normal</styleUrl>
            </Pair>
            <Pair>
                <key>highlight</key>
                <styleUrl>#214</styleUrl>
            </Pair>
        </StyleMap>
        <StyleMap id="95">
            <Pair>
                <key>normal</key>
                <styleUrl>#icon-1602-0F9D58-normal</styleUrl>
            </Pair>
            <Pair>
                <key>highlight</key>
                <styleUrl>#215</styleUrl>
            </Pair>
        </StyleMap>
        <StyleMap id="99">
            <Pair>
                <key>normal</key>
                <styleUrl>#icon-1602-FFEA00-normal</styleUrl>
            </Pair>
            <Pair>
                <key>highlight</key>
                <styleUrl>#216</styleUrl>
            </Pair>
        </StyleMap>
        <StyleMap id="103">
            <Pair>
                <key>normal</key>
                <styleUrl>#icon-1602-FF5252-normal</styleUrl>
            </Pair>
            <Pair>
                <key>highlight</key>
                <styleUrl>#217</styleUrl>
            </Pair>
        </StyleMap>
        <StyleMap id="107">
            <Pair>
                <key>normal</key>
                <styleUrl>#icon-1502-0288D1-normal</styleUrl>
            </Pair>
            <Pair>
                <key>highlight</key>
                <styleUrl>#218</styleUrl>
            </Pair>
        </StyleMap>
        <StyleMap id="127">
            <Pair>
                <key>normal</key>
                <styleUrl>#icon-1670-0288D1-normal</styleUrl>
            </Pair>
            <Pair>
                <key>highlight</key>
                <styleUrl>#219</styleUrl>
            </Pair>
        </StyleMap>
        <StyleMap id="115">
            <Pair>
                <key>normal</key>
                <styleUrl>#icon-1591-0288D1-normal</styleUrl>
            </Pair>
            <Pair>
                <key>highlight</key>
                <styleUrl>#220</styleUrl>
            </Pair>
        </StyleMap>
        <StyleMap id="111">
            <Pair>
                <key>normal</key>
                <styleUrl>#icon-1720-0288D1-normal</styleUrl>
            </Pair>
            <Pair>
                <key>highlight</key>
                <styleUrl>#221</styleUrl>
            </Pair>
        </StyleMap>
        <StyleMap id="123">
            <Pair>
                <key>normal</key>
                <styleUrl>#icon-1706-0288D1-normal</styleUrl>
            </Pair>
            <Pair>
                <key>highlight</key>
                <styleUrl>#222</styleUrl>
            </Pair>
        </StyleMap>
        <StyleMap id="119">
            <Pair>
                <key>normal</key>
                <styleUrl>#icon-1636-0288D1-normal</styleUrl>
            </Pair>
            <Pair>
                <key>highlight</key>
                <styleUrl>#223</styleUrl>
            </Pair>
        </StyleMap>
        <StyleMap id="143">
            <Pair>
                <key>normal</key>
                <styleUrl>#icon-1569-0288D1-normal</styleUrl>
            </Pair>
            <Pair>
                <key>highlight</key>
                <styleUrl>#224</styleUrl>
            </Pair>
        </StyleMap>
        <StyleMap id="139">
            <Pair>
                <key>normal</key>
                <styleUrl>#icon-1532-0288D1-normal</styleUrl>
            </Pair>
            <Pair>
                <key>highlight</key>
                <styleUrl>#225</styleUrl>
            </Pair>
        </StyleMap>
        <StyleMap id="135">
            <Pair>
                <key>normal</key>
                <styleUrl>#icon-1504-0288D1-normal</styleUrl>
            </Pair>
            <Pair>
                <key>highlight</key>
                <styleUrl>#226</styleUrl>
            </Pair>
        </StyleMap>
        <StyleMap id="131">
            <Pair>
                <key>normal</key>
                <styleUrl>#icon-1716-0288D1-normal</styleUrl>
            </Pair>
            <Pair>
                <key>highlight</key>
                <styleUrl>#227</styleUrl>
            </Pair>
        </StyleMap>
        <StyleMap id="147">
            <Pair>
                <key>normal</key>
                <styleUrl>#icon-1731-0288D1-normal</styleUrl>
            </Pair>
            <Pair>
                <key>highlight</key>
                <styleUrl>#228</styleUrl>
            </Pair>
        </StyleMap>
        <StyleMap id="151">
            <Pair>
                <key>normal</key>
                <styleUrl>#icon-1511-0288D1-normal</styleUrl>
            </Pair>
            <Pair>
                <key>highlight</key>
                <styleUrl>#229</styleUrl>
            </Pair>
        </StyleMap>
        <StyleMap id="159">
            <Pair>
                <key>normal</key>
                <styleUrl>#icon-1637-0288D1-normal</styleUrl>
            </Pair>
            <Pair>
                <key>highlight</key>
                <styleUrl>#230</styleUrl>
            </Pair>
        </StyleMap>
        <StyleMap id="155">
            <Pair>
                <key>normal</key>
                <styleUrl>#icon-1635-0288D1-normal</styleUrl>
            </Pair>
            <Pair>
                <key>highlight</key>
                <styleUrl>#231</styleUrl>
            </Pair>
        </StyleMap>
        <StyleMap id="163">
            <Pair>
                <key>normal</key>
                <styleUrl>#icon-1685-0288D1-normal</styleUrl>
            </Pair>
            <Pair>
                <key>highlight</key>
                <styleUrl>#232</styleUrl>
            </Pair>
        </StyleMap>
        <StyleMap id="167">
            <Pair>
                <key>normal</key>
                <styleUrl>#icon-1654-0288D1-normal</styleUrl>
            </Pair>
            <Pair>
                <key>highlight</key>
                <styleUrl>#233</styleUrl>
            </Pair>
        </StyleMap>
        <StyleMap id="171">
            <Pair>
                <key>normal</key>
                <styleUrl>#icon-1522-0288D1-normal</styleUrl>
            </Pair>
            <Pair>
                <key>highlight</key>
                <styleUrl>#234</styleUrl>
            </Pair>
        </StyleMap>
        <StyleMap id="175">
            <Pair>
                <key>normal</key>
                <styleUrl>#icon-1726-0288D1-normal</styleUrl>
            </Pair>
            <Pair>
                <key>highlight</key>
                <styleUrl>#235</styleUrl>
            </Pair>
        </StyleMap>
        <StyleMap id="179">
            <Pair>
                <key>normal</key>
                <styleUrl>#icon-1608-0288D1-normal</styleUrl>
            </Pair>
            <Pair>
                <key>highlight</key>
                <styleUrl>#236</styleUrl>
            </Pair>
        </StyleMap>
        <Folder id="11">
            <name>A</name>
            <Placemark id="185">
                <name>Niwari, Madhya Pradesh</name>
                <description>                    category  : human settlement &lt;br&gt;   
                    sitelinks : 19.0 &lt;br&gt;   
                    articleEN : https://en.wikipedia.org/wiki/Niwari,_Madhya_Pradesh &lt;br&gt;             
                    articleDE :  &lt;br&gt;              
                    wikidata_link : http://www.wikidata.org/entity/Q2720072</description>
                <styleUrl>#icon-1739-7CB342</styleUrl>
                <Point id="184">
                    <coordinates>79.71,25.43,0.0</coordinates>
                </Point>
            </Placemark>
        </Folder>
        <Folder id="12">
            <name>C</name>
            <Placemark id="183">
                <name>Rawatpura, Kulpahar</name>
                <description>                    category  : Village in India &lt;br&gt;   
                    sitelinks : 3.0 &lt;br&gt;   
                    articleEN : https://en.wikipedia.org/wiki/Rawatpura,_Kulpahar &lt;br&gt;             
                    articleDE :  &lt;br&gt;              
                    wikidata_link : http://www.wikidata.org/entity/Q7296951</description>
                <styleUrl>#31</styleUrl>
                <Point id="182">
                    <coordinates>79.662722222222,25.260686111111,0.0</coordinates>
                </Point>
            </Placemark>
        </Folder>
        <Folder id="13">
            <name>S</name>
            <Placemark id="187">
                <name>Charkhari</name>
                <description>                    category  : human settlement &lt;br&gt;   
                    sitelinks : 20.0 &lt;br&gt;   
                    articleEN : https://en.wikipedia.org/wiki/Charkhari &lt;br&gt;             
                    articleDE : https://de.wikipedia.org/wiki/Charkhari &lt;br&gt;              
                    wikidata_link : http://www.wikidata.org/entity/Q886602</description>
                <styleUrl>#icon-1739-E65100</styleUrl>
                <Point id="186">
                    <coordinates>79.75,25.4,0.0</coordinates>
                </Point>
            </Placemark>
            <Placemark id="189">
                <name>Kulpahar</name>
                <description>                    category  : Nagar Panchayat &lt;br&gt;   
                    sitelinks : 21.0 &lt;br&gt;   
                    articleEN : https://en.wikipedia.org/wiki/Kulpahar &lt;br&gt;             
                    articleDE : https://de.wikipedia.org/wiki/Kulpahar &lt;br&gt;              
                    wikidata_link : http://www.wikidata.org/entity/Q1393339</description>
                <styleUrl>#icon-1739-E65100</styleUrl>
                <Point id="188">
                    <coordinates>79.641,25.319,0.0</coordinates>
                </Point>
            </Placemark>
        </Folder>
        <Folder id="14">
            <name>wikivoyage</name>
            <Placemark id="191">
                <name>Mahoba Junction railway station </name>
                <description>
                category  : Get in &lt;br&gt;
                address  :   &lt;br&gt;
                url  :   &lt;br&gt;
                description  :  &lt;br&gt;
                </description>
                <styleUrl>#35</styleUrl>
                <Point id="190">
                    <coordinates>79.8502763,25.3063687,0.0</coordinates>
                </Point>
            </Placemark>
            <Placemark id="193">
                <name>Kakramath </name>
                <description>
                category  : See &lt;br&gt;
                address  :   &lt;br&gt;
                url  :   &lt;br&gt;
                description  : A Shiva temple made from granite and built in a Khajuraho-like architectural style.  &lt;br&gt;
                </description>
                <styleUrl>#107</styleUrl>
                <Point id="192">
                    <coordinates>0.0,0.0,0.0</coordinates>
                </Point>
            </Placemark>
            <Placemark id="195">
                <name>Kirat Sagar </name>
                <description>
                category  : See &lt;br&gt;
                address  :   &lt;br&gt;
                url  :   &lt;br&gt;
                description  : An artificial lake made by the Chandela kings in the 11th century.  &lt;br&gt;
                </description>
                <styleUrl>#107</styleUrl>
                <Point id="194">
                    <coordinates>79.86167668611111,25.2967186,0.0</coordinates>
                </Point>
            </Placemark>
        </Folder>
        <Placemark id="181">
            <styleUrl>#179</styleUrl>
            <Point id="180">
                <coordinates>0.0, 0.0, 0.0</coordinates>
            </Point>
        </Placemark>
    </Document>
</kml>
